BEIDOU-2 IGSO-1 (C06)   
1 36828U 10036A   26119.06205814 -.00000064  00000+0  00000+0 0  9991
2 36828  54.2930 163.4039 0058877 224.2001 318.3940  1.00283168 57609
BEIDOU-2 G4 (C04)       
1 37210U 10057A   26120.73248779 -.00000109  00000+0  00000+0 0  9993
2 37210   3.5310  69.2159 0005836 213.6237 359.4444  1.00270784 56817
BEIDOU-2 IGSO-2 (C07)   
1 37256U 10068A   26120.86410505 -.00000226  00000+0  00000+0 0  9997
2 37256  47.6369 272.4160 0053346 211.9743 150.5483  1.00299038 56324
BEIDOU-2 IGSO-3 (C08)   
1 37384U 11013A   26119.76150138 -.00000213  00000+0  00000+0 0  9996
2 37384  62.3464  40.6087 0034013 187.3422  12.0745  1.00279702 55170
BEIDOU-2 IGSO-4 (C09)   
1 37763U 11038A   26119.60233541  .00000014  00000+0  00000+0 0  9995
2 37763  54.5887 166.1187 0158590 231.8563 128.1419  1.00255675 54164
BEIDOU-2 IGSO-5 (C10)   
1 37948U 11073A   26120.89747236 -.00000212  00000+0  00000+0 0  9994
2 37948  47.7665 272.1272 0110863 220.7621 142.3889  1.00259735 52666
BEIDOU-2 G5 (C05)       
1 38091U 12008A   26121.06892402  .00000062  00000+0  00000+0 0  9991
2 38091   3.4584  69.9684 0011837 269.8378 322.7533  1.00268231 51893
BEIDOU-2 M3 (C11)       
1 38250U 12018A   26118.25163303 -.00000068  00000+0  00000+0 0  9994
2 38250  55.8009 306.5572 0019696 277.8908  81.8857  1.86229703 95017
BEIDOU-2 M4 (C12)       
1 38251U 12018B   26118.72081359 -.00000071  00000+0  00000+0 0  9991
2 38251  55.7012 305.7592 0010983 283.6955  76.1797  1.86229316 95022
BEIDOU-2 M6 (C14)       
1 38775U 12050B   26118.96763785 -.00000062  00000+0  00000+0 0  9994
2 38775  56.5035  64.5210 0014467 349.0731  10.8589  1.86230947 92397
BEIDOU-2 G6 (C02)       
1 38953U 12059A   26121.00262375 -.00000171  00000+0  00000+0 0  9990
2 38953   4.3042  74.0137 0010787 316.5535 273.3149  1.00274543 49431
BEIDOU-3S IGSO-1S (C31) 
1 40549U 15019A   26112.98991377 -.00000171  00000+0  00000+0 0  9991
2 40549  49.2998 296.1212 0037208 189.9963 176.4804  1.00261100 40525
BEIDOU-3S M2S (C58)     
1 40748U 15037A   26120.53482161 -.00000078  00000+0  00000+0 0  9994
2 40748  54.9135 303.6855 0007409 270.0851  89.8176  1.86231934 73236
BEIDOU-3S M1S (C57)     
1 40749U 15037B   26119.13740098 -.00000075  00000+0  00000+0 0  9992
2 40749  54.9118 303.7219 0004387  52.3923 307.6400  1.86254944 73211
BEIDOU-3S IGSO-2S (C56) 
1 40938U 15053A   26120.85580698 -.00000175  00000+0  00000+0 0  9990
2 40938  49.2969 259.3422 0063582 190.6167 173.6786  1.00270865 38880
BEIDOU-2 IGSO-6 (C13)   
1 41434U 16021A   26120.74816708 -.00000181  00000+0  00000+0 0  9997
2 41434  60.1640  38.5110 0057868 232.7451 311.7988  1.00268038 37006
BEIDOU-2 G7 (C03)       
1 41586U 16037A   26121.00791044 -.00000349  00000+0  00000+0 0  9993
2 41586   1.6053  68.8683 0007363 352.8634 270.5592  1.00276696  6418
BEIDOU-3 M1 (C19)       
1 43001U 17069A   26119.26999720 -.00000064  00000+0  00000+0 0  9993
2 43001  56.6521  64.6944 0012046 318.3922  41.4791  1.86231106 57690
BEIDOU-3 M2 (C20)       
1 43002U 17069B   26118.13471051 -.00000055  00000+0  00000+0 0  9991
2 43002  56.6504  64.7678 0010132 339.6357  20.2893  1.86230531 57665
BEIDOU-3 M7 (C27)       
1 43107U 18003A   26118.41324815 -.00000073  00000+0  00000+0 0  9992
2 43107  54.3730 304.0491 0005306  83.0077 277.0478  1.86227844 56423
BEIDOU-3 M8 (C28)       
1 43108U 18003B   26120.50659236 -.00000080  00000+0  00000+0 0  9992
2 43108  54.3643 303.9581 0002028 285.2876  74.6780  1.86230914 56470
BEIDOU-3 M4 (C22)       
1 43207U 18018A   26118.26436532 -.00000056  00000+0  00000+0 0  9993
2 43207  56.6102  64.7932 0007828   2.6341 357.3351  1.86231066 55819
BEIDOU-3 M3 (C21)       
1 43208U 18018B   26118.33081600 -.00000057  00000+0  00000+0 0  9995
2 43208  56.6096  64.7951 0009967 330.5076  29.4011  1.86230991 55813
BEIDOU-3 M9 (C29)       
1 43245U 18029A   26120.69623628 -.00000079  00000+0  00000+0 0  9996
2 43245  54.2378 301.6079 0000999  84.6138 275.3813  1.86228315 55018
BEIDOU-3 M10 (C30)      
1 43246U 18029B   26120.63084293 -.00000079  00000+0  00000+0 0  9990
2 43246  54.2354 301.6372 0004854  36.6402 323.3769  1.86228996 54999
BEIDOU-2 IGSO-7 (C16)   
1 43539U 18057A   26118.62091316 -.00000054  00000+0  00000+0 0  9999
2 43539  55.1860 163.4912 0103360 237.6605 151.5978  1.00266415 28639
BEIDOU-3 M5 (C23)       
1 43581U 18062A   26120.31811631  .00000047  00000+0  00000+0 0  9992
2 43581  54.0832 183.9317 0004498 289.4680  70.5651  1.86228888 52742
BEIDOU-3 M6 (C24)       
1 43582U 18062B   26120.18134653  .00000046  00000+0  00000+0 0  9999
2 43582  54.0829 183.9256 0004885  20.2168 339.8837  1.86227959 52748
BEIDOU-3 M12 (C26)      
1 43602U 18067A   26119.58278318  .00000044  00000+0  00000+0 0  9994
2 43602  54.1781 182.6886 0007879  33.4038 326.7252  1.86227801 52216
BEIDOU-3 M11 (C25)      
1 43603U 18067B   26119.71770407  .00000045  00000+0  00000+0 0  9997
2 43603  54.1750 182.6478 0004460  19.8737 340.2237  1.86227226 52245
BEIDOU-3 M13 (C32)      
1 43622U 18072A   26119.13587390 -.00000064  00000+0  00000+0 0  9999
2 43622  56.5843  64.2770 0008729 319.5075  40.3910  1.86231038 51748
BEIDOU-3 M14 (C33)      
1 43623U 18072B   26118.46436510 -.00000059  00000+0  00000+0 0  9996
2 43623  56.5856  64.2934 0006908 342.9993  16.9423  1.86231017 51724
BEIDOU-3 M16 (C35)      
1 43647U 18078A   26120.23130774 -.00000079  00000+0  00000+0 0  9991
2 43647  54.1348 301.6663 0008068  38.8140 321.2290  1.86232431 51265
BEIDOU-3 M15 (C34)      
1 43648U 18078B   26120.89756919 -.00000079  00000+0  00000+0 0  9999
2 43648  54.1288 301.6428 0005245  51.0673 308.9627  1.86232132 51297
BEIDOU-3 G1 (C59)       
1 43683U 18085A   26120.94637686 -.00000103  00000+0  00000+0 0  9999
2 43683   2.9566  98.6230 0007277 334.6423 286.2337  1.00273144 27585
BEIDOU-3 M17 (C36)      
1 43706U 18093A   26119.98305314  .00000045  00000+0  00000+0 0  9990
2 43706  54.1669 183.9319 0009109 291.6066  67.4918  1.86228565 50638
BEIDOU-3 M18 (C37)      
1 43707U 18093B   26119.84730672  .00000044  00000+0  00000+0 0  9994
2 43707  54.1675 183.9285 0007146 324.1917  35.8399  1.86226726 50633
BEIDOU-3 IGSO-1 (C38)   
1 44204U 19023A   26118.46987163 -.00000241  00000+0  00000+0 0  9997
2 44204  58.6298  38.1618 0024418 235.6024 228.3061  1.00254927  6718
BEIDOU-2 G8 (C01)       
1 44231U 19027A   26121.33704082 -.00000243  00000+0  00000+0 0  9990
2 44231   1.5412  74.3976 0010952 281.8185 128.8309  1.00267461 25617
BEIDOU-3 IGSO-2 (C39)   
1 44337U 19035A   26121.00947045 -.00000058  00000+0  00000+0 0  9992
2 44337  55.2367 159.2767 0039477 215.4480 327.2759  1.00281549 25194
BEIDOU-3 M24 (C46)      
1 44542U 19061A   26119.91657215  .00000044  00000+0  00000+0 0  9997
2 44542  54.3942 184.3559 0008063   6.0417 354.0475  1.86229015 44895
BEIDOU-3 M23 (C45)      
1 44543U 19061B   26120.58189586  .00000049  00000+0  00000+0 0  9999
2 44543  54.3929 184.3018 0005078 347.2728  10.7763  1.86227512 44907
BEIDOU-3 IGSO-3 (C40)   
1 44709U 19073A   26116.86055463 -.00000201  00000+0  00000+0 0  9999
2 44709  54.8910 281.4498 0042200 188.8144 171.0242  1.00252491 23940
BEIDOU-3 M22 (C44)      
1 44793U 19078A   26120.82963856 -.00000079  00000+0  00000+0 0  9995
2 44793  53.9803 301.4924 0007432  46.8365 313.2087  1.86227022 43762
BEIDOU-3 M21 (C43)      
1 44794U 19078B   26120.96968089 -.00000079  00000+0  00000+0 0  9994
2 44794  53.9526 301.4497 0005230  44.8215 315.2034  1.86227626 43771
BEIDOU-3 M19 (C41)      
1 44864U 19090A   26119.32853961 -.00000065  00000+0  00000+0 0  9991
2 44864  56.5188  64.4042 0019677 295.9466 240.7288  1.86231425 43327
BEIDOU-3 M20 (C42)      
1 44865U 19090B   26118.77031501 -.00000061  00000+0  00000+0 0  9994
2 44865  56.5199  64.4572 0017346 308.5156 303.4997  1.86231466 43291
BEIDOU-3 G2 (C60)       
1 45344U 20017A   26121.14448889 -.00000136  00000+0  00000+0 0  9997
2 45344   2.7714  46.6073 0002816 355.4856 309.0442  1.00271577 22783
BEIDOU-3 G3 (C61)       
1 45807U 20040A   26121.07922862 -.00000349  00000+0  00000+0 0  9993
2 45807   2.3334  67.3152 0004013 334.5186 316.2151  1.00268644 21590
BEIDOU-3 G4 (C62)       
1 56564U 23066A   26121.29892950 -.00000277  00000+0  00000+0 0  9994
2 56564   0.5503 320.8160 0003187 157.7696 348.3482  1.00271231 10922
BEIDOU-3 M28 (C50)      
1 58654U 23207A   26118.89904458 -.00000064  00000+0  00000+0 0  9996
2 58654  55.7115  63.9651 0004548 324.2062  35.7276  1.86229745 15925
BEIDOU-3 M26 (C48)      
1 58655U 23207B   26118.69653898 -.00000062  00000+0  00000+0 0  9992
2 58655  55.7133  63.9584 0004903 305.5687  54.3504  1.86229743 15908
BEIDOU-3 M25 (C47)      
1 61186U 24168B   26120.67084924 -.00000079  00000+0  00000+0 0  9999
2 61186  54.5168 303.8924 0003268 318.6755  42.1008  1.86230307 10901
BEIDOU-3 M27 (C49)      
1 61187U 24168C   26121.00331709 -.00000079  00000+0  00000+0 0  9994
2 61187  54.5116 303.8640 0002559  40.2999 318.3931  1.86230425  8372
